[{"OBJECT_NAME":"STARLINK-32820","OBJECT_ID":"2025-034N","EPOCH":"2026-03-09T19:18:33.929568","MEAN_MOTION":15.30201128,"ECCENTRICITY":9.216e-5,"INCLINATION":53.1578,"RA_OF_ASC_NODE":257.6441,"ARG_OF_PERICENTER":81.0026,"MEAN_ANOMALY":279.1079,"EPHEMERIS_TYPE":0,"CLASSIFICATION_TYPE":"U","NORAD_CAT_ID":63041,"ELEMENT_SET_NO":999,"REV_AT_EPOCH":5910,"BSTAR":0.0011012095,"MEAN_MOTION_DOT":0.00032399,"MEAN_MOTION_DDOT":0},{"OBJECT_NAME":"HERMES-3","OBJECT_ID":"2025-052BR","EPOCH":"2026-03-09T22:30:01.073952","MEAN_MOTION":15.30039786,"ECCENTRICITY":0.00079928,"INCLINATION":97.3987,"RA_OF_ASC_NODE":324.6131,"ARG_OF_PERICENTER":112.9583,"MEAN_ANOMALY":247.2502,"EPHEMERIS_TYPE":0,"CLASSIFICATION_TYPE":"U","NORAD_CAT_ID":63835,"ELEMENT_SET_NO":999,"REV_AT_EPOCH":5486,"BSTAR":0.0006995793,"MEAN_MOTION_DOT":0.00020316,"MEAN_MOTION_DDOT":0}]
