STARLINK-32820          
1 63041U 25034N   26068.80455937  .00032399  00000+0  11012-2 0  9993
2 63041  53.1578 257.6441 0000921  81.0026 279.1079 15.30201128 59106
HERMES-3                
1 63835U 25052BR  26068.93751242  .00020316  00000+0  69958-3 0  9995
2 63835  97.3987 324.6131 0007993 112.9583 247.2502 15.30039785 54863
